STARLINK-36289          
1 67827U 26033G   26056.18975804 -.00039818  00000+0 -16589-3 0  9997
2 67827  42.9982 348.0705 0003649 352.2328   7.8487 15.84565637  2646
STARLINK-36670          
1 67828U 26033H   26056.18905869 -.00675801  00000+0 -30650-2 0  9994
2 67828  42.9981 348.0659 0003387 252.6055 107.4447 15.84564489  2640
STARLINK-36144          
1 67829U 26033J   26056.18839695 -.00122847  00000+0 -51287-3 0  9995
2 67829  42.9985 348.0593 0003162 345.1987  14.8793 15.84918758  2642
STARLINK-36611          
1 67830U 26033K   26056.18773777  .00398205  00000+0  15585-2 0  9996
2 67830  42.9985 348.0548 0004023 338.6533  21.4172 15.85148505  2646
STARLINK-36661          
1 67831U 26033L   26056.18708557 -.00052158  00000+0 -20999-3 0  9993
2 67831  42.9982 348.0485 0003623 348.0511  12.0276 15.85369576  2644
STARLINK-36662          
1 67832U 26033M   26056.84815356  .00726965  23084-3  17850-2 0  9997
2 67832  42.9984 343.5160 0006930 204.6711 155.3835 15.95223179  2753
STARLINK-36659          
1 67833U 26033N   26056.18641802  .00018931  00000+0  78112-4 0  9994
2 67833  42.9985 348.0436 0003723 346.9620  13.1156 15.85534476  2646
STARLINK-36655          
1 67834U 26033P   26056.81560638  .00430131  00000+0  16101-2 0  9990
2 67834  42.9984 344.1564 0014473 246.3544 113.5810 15.85864403  2746
STARLINK-36657          
1 67835U 26033Q   26056.94107857  .00397079  00000+0  15090-2 0  9994
2 67835  43.0000 343.3778 0015542 240.5280 119.4043 15.85606479  2769
STARLINK-36650          
1 67836U 26033R   26056.18450007 -.00021912  00000+0 -83358-4 0  9995
2 67836  42.9986 348.0274 0003994 345.5617  14.5141 15.86139172  2645
STARLINK-36649          
1 67837U 26033S   26056.81347732  .00438356  00000+0  15953-2 0  9992
2 67837  42.9977 344.1400 0014495 243.6836 116.2549 15.86421885  2741
STARLINK-36654          
1 67838U 26033T   26056.87585344  .00476346  00000+0  17312-2 0  9994
2 67838  42.9987 343.7477 0014243 242.1276 117.8154 15.86366780  2757
