CCSDS_OMM_VERS = 2.0
CREATION_DATE  = 
ORIGINATOR     = 

OBJECT_NAME    = STARLINK-36289
OBJECT_ID      = 2026-033G
CENTER_NAME    = EARTH
REF_FRAME      = TEME
TIME_SYSTEM    = UTC
MEAN_ELEMENT_THEORY = SGP/SGP4

EPOCH          = 2026-02-25T04:33:15.094656
MEAN_MOTION    = 15.84565637
ECCENTRICITY   = .0003649
INCLINATION    = 42.9982
RA_OF_ASC_NODE = 348.0705
ARG_OF_PERICENTER = 352.2328
MEAN_ANOMALY   = 7.8487

EPHEMERIS_TYPE = 0
CLASSIFICATION_TYPE = U
NORAD_CAT_ID   = 67827
ELEMENT_SET_NO = 999
REV_AT_EPOCH   = 264
BSTAR          = -.16589E-3
MEAN_MOTION_DOT = -.39818E-3
MEAN_MOTION_DDOT = 0

CCSDS_OMM_VERS = 2.0
CREATION_DATE  = 
ORIGINATOR     = 

OBJECT_NAME    = STARLINK-36670
OBJECT_ID      = 2026-033H
CENTER_NAME    = EARTH
REF_FRAME      = TEME
TIME_SYSTEM    = UTC
MEAN_ELEMENT_THEORY = SGP/SGP4

EPOCH          = 2026-02-25T04:32:14.670816
MEAN_MOTION    = 15.84564489
ECCENTRICITY   = .0003387
INCLINATION    = 42.9981
RA_OF_ASC_NODE = 348.0659
ARG_OF_PERICENTER = 252.6055
MEAN_ANOMALY   = 107.4447

EPHEMERIS_TYPE = 0
CLASSIFICATION_TYPE = U
NORAD_CAT_ID   = 67828
ELEMENT_SET_NO = 999
REV_AT_EPOCH   = 264
BSTAR          = -.3065E-2
MEAN_MOTION_DOT = -.675801E-2
MEAN_MOTION_DDOT = 0

CCSDS_OMM_VERS = 2.0
CREATION_DATE  = 
ORIGINATOR     = 

OBJECT_NAME    = STARLINK-36144
OBJECT_ID      = 2026-033J
CENTER_NAME    = EARTH
REF_FRAME      = TEME
TIME_SYSTEM    = UTC
MEAN_ELEMENT_THEORY = SGP/SGP4

EPOCH          = 2026-02-25T04:31:17.496480
MEAN_MOTION    = 15.84918758
ECCENTRICITY   = .0003162
INCLINATION    = 42.9985
RA_OF_ASC_NODE = 348.0593
ARG_OF_PERICENTER = 345.1987
MEAN_ANOMALY   = 14.8793

EPHEMERIS_TYPE = 0
CLASSIFICATION_TYPE = U
NORAD_CAT_ID   = 67829
ELEMENT_SET_NO = 999
REV_AT_EPOCH   = 264
BSTAR          = -.51287E-3
MEAN_MOTION_DOT = -.122847E-2
MEAN_MOTION_DDOT = 0

CCSDS_OMM_VERS = 2.0
CREATION_DATE  = 
ORIGINATOR     = 

OBJECT_NAME    = STARLINK-36611
OBJECT_ID      = 2026-033K
CENTER_NAME    = EARTH
REF_FRAME      = TEME
TIME_SYSTEM    = UTC
MEAN_ELEMENT_THEORY = SGP/SGP4

EPOCH          = 2026-02-25T04:30:20.543328
MEAN_MOTION    = 15.85148505
ECCENTRICITY   = .0004023
INCLINATION    = 42.9985
RA_OF_ASC_NODE = 348.0548
ARG_OF_PERICENTER = 338.6533
MEAN_ANOMALY   = 21.4172

EPHEMERIS_TYPE = 0
CLASSIFICATION_TYPE = U
NORAD_CAT_ID   = 67830
ELEMENT_SET_NO = 999
REV_AT_EPOCH   = 264
BSTAR          = .15585E-2
MEAN_MOTION_DOT = .398205E-2
MEAN_MOTION_DDOT = 0

CCSDS_OMM_VERS = 2.0
CREATION_DATE  = 
ORIGINATOR     = 

OBJECT_NAME    = STARLINK-36661
OBJECT_ID      = 2026-033L
CENTER_NAME    = EARTH
REF_FRAME      = TEME
TIME_SYSTEM    = UTC
MEAN_ELEMENT_THEORY = SGP/SGP4

EPOCH          = 2026-02-25T04:29:24.193248
MEAN_MOTION    = 15.85369576
ECCENTRICITY   = .0003623
INCLINATION    = 42.9982
RA_OF_ASC_NODE = 348.0485
ARG_OF_PERICENTER = 348.0511
MEAN_ANOMALY   = 12.0276

EPHEMERIS_TYPE = 0
CLASSIFICATION_TYPE = U
NORAD_CAT_ID   = 67831
ELEMENT_SET_NO = 999
REV_AT_EPOCH   = 264
BSTAR          = -.20999E-3
MEAN_MOTION_DOT = -.52158E-3
MEAN_MOTION_DDOT = 0

CCSDS_OMM_VERS = 2.0
CREATION_DATE  = 
ORIGINATOR     = 

OBJECT_NAME    = STARLINK-36662
OBJECT_ID      = 2026-033M
CENTER_NAME    = EARTH
REF_FRAME      = TEME
TIME_SYSTEM    = UTC
MEAN_ELEMENT_THEORY = SGP/SGP4

EPOCH          = 2026-02-25T20:21:20.467584
MEAN_MOTION    = 15.95223179
ECCENTRICITY   = .000693
INCLINATION    = 42.9984
RA_OF_ASC_NODE = 343.5160
ARG_OF_PERICENTER = 204.6711
MEAN_ANOMALY   = 155.3835

EPHEMERIS_TYPE = 0
CLASSIFICATION_TYPE = U
NORAD_CAT_ID   = 67832
ELEMENT_SET_NO = 999
REV_AT_EPOCH   = 275
BSTAR          = .1785E-2
MEAN_MOTION_DOT = .726965E-2
MEAN_MOTION_DDOT = .23084E-3

CCSDS_OMM_VERS = 2.0
CREATION_DATE  = 
ORIGINATOR     = 

OBJECT_NAME    = STARLINK-36659
OBJECT_ID      = 2026-033N
CENTER_NAME    = EARTH
REF_FRAME      = TEME
TIME_SYSTEM    = UTC
MEAN_ELEMENT_THEORY = SGP/SGP4

EPOCH          = 2026-02-25T04:28:26.516928
MEAN_MOTION    = 15.85534476
ECCENTRICITY   = .0003723
INCLINATION    = 42.9985
RA_OF_ASC_NODE = 348.0436
ARG_OF_PERICENTER = 346.9620
MEAN_ANOMALY   = 13.1156

EPHEMERIS_TYPE = 0
CLASSIFICATION_TYPE = U
NORAD_CAT_ID   = 67833
ELEMENT_SET_NO = 999
REV_AT_EPOCH   = 264
BSTAR          = .78112E-4
MEAN_MOTION_DOT = .18931E-3
MEAN_MOTION_DDOT = 0

CCSDS_OMM_VERS = 2.0
CREATION_DATE  = 
ORIGINATOR     = 

OBJECT_NAME    = STARLINK-36655
OBJECT_ID      = 2026-033P
CENTER_NAME    = EARTH
REF_FRAME      = TEME
TIME_SYSTEM    = UTC
MEAN_ELEMENT_THEORY = SGP/SGP4

EPOCH          = 2026-02-25T19:34:28.391232
MEAN_MOTION    = 15.85864403
ECCENTRICITY   = .0014473
INCLINATION    = 42.9984
RA_OF_ASC_NODE = 344.1564
ARG_OF_PERICENTER = 246.3544
MEAN_ANOMALY   = 113.5810

EPHEMERIS_TYPE = 0
CLASSIFICATION_TYPE = U
NORAD_CAT_ID   = 67834
ELEMENT_SET_NO = 999
REV_AT_EPOCH   = 274
BSTAR          = .16101E-2
MEAN_MOTION_DOT = .430131E-2
MEAN_MOTION_DDOT = 0

CCSDS_OMM_VERS = 2.0
CREATION_DATE  = 
ORIGINATOR     = 

OBJECT_NAME    = STARLINK-36657
OBJECT_ID      = 2026-033Q
CENTER_NAME    = EARTH
REF_FRAME      = TEME
TIME_SYSTEM    = UTC
MEAN_ELEMENT_THEORY = SGP/SGP4

EPOCH          = 2026-02-25T22:35:09.188448
MEAN_MOTION    = 15.85606479
ECCENTRICITY   = .0015542
INCLINATION    = 43.0000
RA_OF_ASC_NODE = 343.3778
ARG_OF_PERICENTER = 240.5280
MEAN_ANOMALY   = 119.4043

EPHEMERIS_TYPE = 0
CLASSIFICATION_TYPE = U
NORAD_CAT_ID   = 67835
ELEMENT_SET_NO = 999
REV_AT_EPOCH   = 276
BSTAR          = .1509E-2
MEAN_MOTION_DOT = .397079E-2
MEAN_MOTION_DDOT = 0

CCSDS_OMM_VERS = 2.0
CREATION_DATE  = 
ORIGINATOR     = 

OBJECT_NAME    = STARLINK-36650
OBJECT_ID      = 2026-033R
CENTER_NAME    = EARTH
REF_FRAME      = TEME
TIME_SYSTEM    = UTC
MEAN_ELEMENT_THEORY = SGP/SGP4

EPOCH          = 2026-02-25T04:25:40.806048
MEAN_MOTION    = 15.86139172
ECCENTRICITY   = .0003994
INCLINATION    = 42.9986
RA_OF_ASC_NODE = 348.0274
ARG_OF_PERICENTER = 345.5617
MEAN_ANOMALY   = 14.5141

EPHEMERIS_TYPE = 0
CLASSIFICATION_TYPE = U
NORAD_CAT_ID   = 67836
ELEMENT_SET_NO = 999
REV_AT_EPOCH   = 264
BSTAR          = -.83358E-4
MEAN_MOTION_DOT = -.21912E-3
MEAN_MOTION_DDOT = 0

CCSDS_OMM_VERS = 2.0
CREATION_DATE  = 
ORIGINATOR     = 

OBJECT_NAME    = STARLINK-36649
OBJECT_ID      = 2026-033S
CENTER_NAME    = EARTH
REF_FRAME      = TEME
TIME_SYSTEM    = UTC
MEAN_ELEMENT_THEORY = SGP/SGP4

EPOCH          = 2026-02-25T19:31:24.440448
MEAN_MOTION    = 15.86421885
ECCENTRICITY   = .0014495
INCLINATION    = 42.9977
RA_OF_ASC_NODE = 344.1400
ARG_OF_PERICENTER = 243.6836
MEAN_ANOMALY   = 116.2549

EPHEMERIS_TYPE = 0
CLASSIFICATION_TYPE = U
NORAD_CAT_ID   = 67837
ELEMENT_SET_NO = 999
REV_AT_EPOCH   = 274
BSTAR          = .15953E-2
MEAN_MOTION_DOT = .438356E-2
MEAN_MOTION_DDOT = 0

CCSDS_OMM_VERS = 2.0
CREATION_DATE  = 
ORIGINATOR     = 

OBJECT_NAME    = STARLINK-36654
OBJECT_ID      = 2026-033T
CENTER_NAME    = EARTH
REF_FRAME      = TEME
TIME_SYSTEM    = UTC
MEAN_ELEMENT_THEORY = SGP/SGP4

EPOCH          = 2026-02-25T21:01:13.737216
MEAN_MOTION    = 15.86366780
ECCENTRICITY   = .0014243
INCLINATION    = 42.9987
RA_OF_ASC_NODE = 343.7477
ARG_OF_PERICENTER = 242.1276
MEAN_ANOMALY   = 117.8154

EPHEMERIS_TYPE = 0
CLASSIFICATION_TYPE = U
NORAD_CAT_ID   = 67838
ELEMENT_SET_NO = 999
REV_AT_EPOCH   = 275
BSTAR          = .17312E-2
MEAN_MOTION_DOT = .476346E-2
MEAN_MOTION_DDOT = 0

